HAWK-5A                 
1 52757U 22057AB  26164.94763557  .00019506  00000+0  33376-3 0  9992
2 52757  97.6592 323.5865 0005779  88.6497 271.5416 15.51287534225846
HAWK-6B                 
1 55324U 23011A   26164.96983389  .00005376  00000+0  23250-3 0  9995
2 55324  40.4994  10.8375 0002926 341.5085  18.5617 15.22907751187351
HAWK-6C                 
1 55326U 23011C   26164.83801009  .00004453  00000+0  19405-3 0  9993
2 55326  40.4992   8.4442 0003600 329.4805  30.5794 15.22903526187349
HAWK-6A                 
1 55327U 23011D   26164.83806553  .00004997  00000+0  21674-3 0  9997
2 55327  40.4994  10.0690 0003404 328.2172  31.8431 15.22903337187344
HAWK-7A                 
1 56191U 23054P   26165.22770065  .00005800  00000+0  21931-3 0  9996
2 56191  97.2708  52.6404 0004511  63.7650 296.4053 15.27333300176578
HAWK-7B                 
1 56193U 23054R   26164.96554831  .00003335  00000+0  12729-3 0  9995
2 56193  97.2742  50.6486 0003779  78.3906 281.7758 15.27324837176537
HAWK-7C                 
1 56200U 23054Y   26165.22750482  .00005750  00000+0  21746-3 0  9996
2 56200  97.2712  51.6731 0003870  66.2363 293.9282 15.27333074176576
